{
    "links": {
        "self": "http://www.neowsapp.com/rest/v1/neo/3662286?api_key=iIulBulltgU6a56xZRHN4H3l9WmuAYTsLGpBGhQ2"
    },
    "id": "3662286",
    "neo_reference_id": "3662286",
    "name": "(2014 DF10)",
    "designation": "2014 DF10",
    "nasa_jpl_url": "http://ssd.jpl.nasa.gov/sbdb.cgi?sstr=3662286",
    "absolute_magnitude_h": 25.4,
    "estimated_diameter": {
        "kilometers": {
            "estimated_diameter_min": 0.022108281,
            "estimated_diameter_max": 0.0494356193
        },
        "meters": {
            "estimated_diameter_min": 22.1082810359,
            "estimated_diameter_max": 49.435619262
        },
        "miles": {
            "estimated_diameter_min": 0.0137374447,
            "estimated_diameter_max": 0.0307178602
        },
        "feet": {
            "estimated_diameter_min": 72.5337327539,
            "estimated_diameter_max": 162.1903570994
        }
    },
    "is_potentially_hazardous_asteroid": false,
    "close_approach_data": [
        {
            "close_approach_date": "1923-03-29",
            "close_approach_date_full": "1923-Mar-29 11:07",
            "epoch_date_close_approach": -1475671980000,
            "relative_velocity": {
                "kilometers_per_second": "19.672997227",
                "kilometers_per_hour": "70822.7900173087",
                "miles_per_hour": "44006.5274971439"
            },
            "miss_distance": {
                "astronomical": "0.4674318787",
                "lunar": "181.8310008143",
                "kilometers": "69926813.423618369",
                "miles": "43450507.0346527322"
            },
            "orbiting_body": "Earth"
        },
        {
            "close_approach_date": "2014-02-21",
            "close_approach_date_full": "2014-Feb-21 05:54",
            "epoch_date_close_approach": 1392962040000,
            "relative_velocity": {
                "kilometers_per_second": "7.154307336",
                "kilometers_per_hour": "25755.506409555",
                "miles_per_hour": "16003.4700798704"
            },
            "miss_distance": {
                "astronomical": "0.0700992384",
                "lunar": "27.2686037376",
                "kilometers": "10486696.753262208",
                "miles": "6516131.2054581504"
            },
            "orbiting_body": "Earth"
        }
    ],
    "orbital_data": {
        "orbit_id": "7",
        "orbit_determination_date": "2017-04-06 08:42:23",
        "first_observation_date": "2014-02-22",
        "last_observation_date": "2014-03-11",
        "data_arc_in_days": 17,
        "observations_used": 30,
        "orbit_uncertainty": "7",
        "minimum_orbit_intersection": ".0533988",
        "jupiter_tisserand_invariant": "3.672",
        "epoch_osculation": "2459000.5",
        "eccentricity": ".4842836301356351",
        "semi_major_axis": "2.008788489838246",
        "inclination": "5.63115969904772",
        "ascending_node_longitude": "151.3496263741055",
        "orbital_period": "1039.919552214621",
        "perihelion_distance": "1.0359651078047",
        "perihelion_argument": "344.4503043408852",
        "aphelion_distance": "2.981611871871793",
        "perihelion_time": "2458776.191387730126",
        "mean_anomaly": "77.6512954729878",
        "mean_motion": ".3461806244851742",
        "equinox": "J2000",
        "orbit_class": {
            "orbit_class_type": "AMO",
            "orbit_class_description": "Near-Earth asteroid orbits similar to that of 1221 Amor",
            "orbit_class_range": "1.017 AU < q (perihelion) < 1.3 AU"
        }
    },
    "is_sentry_object": false
}